{
    "links": {
        "self": "http://www.neowsapp.com/rest/v1/neo/3764890?api_key=iIulBulltgU6a56xZRHN4H3l9WmuAYTsLGpBGhQ2"
    },
    "id": "3764890",
    "neo_reference_id": "3764890",
    "name": "(2016 WH10)",
    "designation": "2016 WH10",
    "nasa_jpl_url": "http://ssd.jpl.nasa.gov/sbdb.cgi?sstr=3764890",
    "absolute_magnitude_h": 26.0,
    "estimated_diameter": {
        "kilometers": {
            "estimated_diameter_min": 0.0167708462,
            "estimated_diameter_max": 0.0375007522
        },
        "meters": {
            "estimated_diameter_min": 16.7708462163,
            "estimated_diameter_max": 37.5007521798
        },
        "miles": {
            "estimated_diameter_min": 0.0104209175,
            "estimated_diameter_max": 0.0233018799
        },
        "feet": {
            "estimated_diameter_min": 55.0224631002,
            "estimated_diameter_max": 123.0339677816
        }
    },
    "is_potentially_hazardous_asteroid": false,
    "close_approach_data": [
        {
            "close_approach_date": "2015-04-20",
            "close_approach_date_full": "2015-Apr-20 22:01",
            "epoch_date_close_approach": 1429567260000,
            "relative_velocity": {
                "kilometers_per_second": "23.1563668728",
                "kilometers_per_hour": "83362.920742112",
                "miles_per_hour": "51798.4770577862"
            },
            "miss_distance": {
                "astronomical": "0.4943623994",
                "lunar": "192.3069733666",
                "kilometers": "73955561.958329278",
                "miles": "45953855.2923209164"
            },
            "orbiting_body": "Earth"
        },
        {
            "close_approach_date": "2016-12-06",
            "close_approach_date_full": "2016-Dec-06 19:20",
            "epoch_date_close_approach": 1481052000000,
            "relative_velocity": {
                "kilometers_per_second": "10.4529731124",
                "kilometers_per_hour": "37630.7032047232",
                "miles_per_hour": "23382.2555551792"
            },
            "miss_distance": {
                "astronomical": "0.014651589",
                "lunar": "5.699468121",
                "kilometers": "2191846.50651543",
                "miles": "1361950.264675734"
            },
            "orbiting_body": "Earth"
        },
        {
            "close_approach_date": "2017-04-21",
            "close_approach_date_full": "2017-Apr-21 01:50",
            "epoch_date_close_approach": 1492739400000,
            "relative_velocity": {
                "kilometers_per_second": "5.8687722432",
                "kilometers_per_hour": "21127.5800755828",
                "miles_per_hour": "13127.8566308531"
            },
            "miss_distance": {
                "astronomical": "0.4438443149",
                "lunar": "172.6554384961",
                "kilometers": "66398164.120649263",
                "miles": "41257906.0300473094"
            },
            "orbiting_body": "Earth"
        },
        {
            "close_approach_date": "2028-04-16",
            "close_approach_date_full": "2028-Apr-16 12:22",
            "epoch_date_close_approach": 1839500520000,
            "relative_velocity": {
                "kilometers_per_second": "20.6820246859",
                "kilometers_per_hour": "74455.2888692195",
                "miles_per_hour": "46263.621019877"
            },
            "miss_distance": {
                "astronomical": "0.4148585144",
                "lunar": "161.3799621016",
                "kilometers": "62061950.105604328",
                "miles": "38563507.5820146064"
            },
            "orbiting_body": "Earth"
        }
    ],
    "orbital_data": {
        "orbit_id": "6",
        "orbit_determination_date": "2017-04-06 08:21:46",
        "first_observation_date": "2016-11-30",
        "last_observation_date": "2016-12-05",
        "data_arc_in_days": 5,
        "observations_used": 84,
        "orbit_uncertainty": "7",
        "minimum_orbit_intersection": ".0106506",
        "jupiter_tisserand_invariant": "4.417",
        "epoch_osculation": "2459000.5",
        "eccentricity": ".41206972613543",
        "semi_major_axis": "1.509110920625264",
        "inclination": "9.10904423320566",
        "ascending_node_longitude": "72.65496897652569",
        "orbital_period": "677.1426513619297",
        "perihelion_distance": ".8872519968552249",
        "perihelion_argument": "53.25804956505781",
        "aphelion_distance": "2.130969844395303",
        "perihelion_time": "2459122.746009297023",
        "mean_anomaly": "295.0084310028109",
        "mean_motion": ".5316457311852029",
        "equinox": "J2000",
        "orbit_class": {
            "orbit_class_type": "APO",
            "orbit_class_description": "Near-Earth asteroid orbits which cross the Earth’s orbit similar to that of 1862 Apollo",
            "orbit_class_range": "a (semi-major axis) > 1.0 AU; q (perihelion) < 1.017 AU"
        }
    },
    "is_sentry_object": false
}